sat20607
1 20607U 90043A   20046.84966700  .00000033  00000-0  25043-5 0  9998
2 20607  89.7439 322.2754 0092559 266.1538  92.9094 14.71563491594768
